NORAD_CAT_ID,OBJECT_NAME,OBJECT_TYPE,EPOCH,MEAN_MOTION,ECCENTRICITY,INCLINATION,RA_OF_ASC_NODE,ARG_OF_PERICENTER,MEAN_ANOMALY,BSTAR,MEAN_MOTION_DOT,MEAN_MOTION_DDOT,TLE_LINE0,TLE_LINE1,TLE_LINE2,SEMIMAJOR_AXIS,PERIOD,APOGEE,PERIGEE,DECAYED
52002.0,STARLINK-3668,PAYLOAD,2024-03-29 22:22:13,15.08844774,0.0001402,53.217,325.3844,94.8415,265.2738,0.00025227,3.73e-05,0.0,0 STARLINK-3668,1 52002U 22025AY  24089.93209520  .00003730  00000-0  25227-3 0  9997,2 52002  53.2170 325.3844 0001402  94.8415 265.2738 15.08844774113776,6917.866,95.437,540.701,538.761,0.0
52002.0,STARLINK-3668,PAYLOAD,2024-03-30 01:32:59,15.08849044,0.0001423,53.2169,324.7858,115.325,244.7889,0.00032731,4.926e-05,0.0,0 STARLINK-3668,1 52002U 22025AY  24090.06457191  .00004926  00000-0  32731-3 0  9998,2 52002  53.2169 324.7858 0001423 115.3250 244.7889 15.08849044115306,6917.853,95.437,540.702,538.733,0.0
52002.0,STARLINK-3668,PAYLOAD,2024-03-30 22:12:57,15.08906333,0.0001065,53.2167,320.9265,84.5163,275.5951,0.0013358,0.00021074,0.0,0 STARLINK-3668,1 52002U 22025AY  24090.92566981  .00021074  00000-0  13358-2 0  9997,2 52002  53.2167 320.9265 0001065  84.5163 275.5951 15.08906333113929,6917.678,95.433,540.279,538.806,0.0
52002.0,STARLINK-3668,PAYLOAD,2024-03-31 20:28:22,15.08840691,0.0001351,53.2169,316.7614,82.4175,277.697,-0.00033656,-5.64e-05,0.0,0 STARLINK-3668,1 52002U 22025AY  24091.85304279 -.00005640  00000-0 -33656-3 0  9997,2 52002  53.2169 316.7614 0001351  82.4175 277.6970 15.08840691115571,6917.878,95.438,540.678,538.809,0.0
52002.0,STARLINK-3668,PAYLOAD,2024-03-31 22:03:45,15.08842861,0.0001358,53.2167,316.4653,76.0062,284.1081,-0.00029984,-5.057e-05,0.0,0 STARLINK-3668,1 52002U 22025AY  24091.91928229 -.00005057  00000-0 -29984-3 0  9992,2 52002  53.2167 316.4653 0001358  76.0062 284.1081 15.08842861114071,6917.872,95.437,540.676,538.797,0.0
52002.0,STARLINK-3668,PAYLOAD,2024-04-01 07:36:05,15.08837764,0.0001341,53.2165,314.6812,80.5469,279.5675,-0.00022723,-3.902e-05,0.0,0 STARLINK-3668,1 52002U 22025AY  24092.31672463 -.00003902  00000-0 -22723-3 0  9994,2 52002  53.2165 314.6812 0001341  80.5469 279.5675 15.08837764114139,6917.887,95.438,540.68,538.825,0.0
52002.0,STARLINK-3668,PAYLOAD,2024-04-01 21:54:33,15.08842629,0.0001301,53.217,312.006,91.8075,268.3066,-0.00018462,-3.225e-05,0.0,0 STARLINK-3668,1 52002U 22025AY  24092.91288440 -.00003225  00000-0 -18462-3 0  9991,2 52002  53.2170 312.0060 0001301  91.8075 268.3066 15.08842629115739,6917.872,95.437,540.637,538.837,0.0
52002.0,STARLINK-3668,PAYLOAD,2024-04-02 07:26:52,15.08838522,0.0001263,53.2169,310.2218,91.1401,268.9736,5.3756e-05,5.68e-06,0.0,0 STARLINK-3668,1 52002U 22025AY  24093.31032895  .00000568  00000-0  53756-4 0  9998,2 52002  53.2169 310.2218 0001263  91.1401 268.9736 15.08838522114281,6917.885,95.438,540.624,538.876,0.0
52002.0,STARLINK-3668,PAYLOAD,2024-04-02 18:34:34,15.088371,0.0001342,53.217,308.1402,92.8883,267.2262,0.0001882,2.708e-05,0.0,0 STARLINK-3668,1 52002U 22025AY  24093.77401276  .00002708  00000-0  18820-3 0  9991,2 52002  53.2170 308.1402 0001342  92.8883 267.2262 15.08837100115866,6917.889,95.438,540.683,538.826,0.0
52002.0,STARLINK-3668,PAYLOAD,2024-04-02 20:09:57,15.08838267,0.0001346,53.2168,307.8428,92.6562,267.4584,0.00020485,2.974e-05,0.0,0 STARLINK-3668,1 52002U 22025AY  24093.84025254  .00002974  00000-0  20485-3 0  9992,2 52002  53.2168 307.8428 0001346  92.6562 267.4584 15.08838267114361,6917.886,95.438,540.682,538.82,0.0
52002.0,STARLINK-3668,PAYLOAD,2024-04-03 07:17:39,15.08838578,0.0001321,53.2161,305.7602,84.5725,275.5418,0.00015478,2.176e-05,0.0,0 STARLINK-3668,1 52002U 22025AY  24094.30393351  .00002176  00000-0  15478-3 0  9990,2 52002  53.2161 305.7602 0001321  84.5725 275.5418 15.08838578114438,6917.885,95.438,540.664,538.836,0.0
52002.0,STARLINK-3668,PAYLOAD,2024-04-03 20:00:45,15.08839385,0.0001224,53.2155,303.3807,86.3987,273.7146,0.00019949,2.888e-05,0.0,0 STARLINK-3668,1 52002U 22025AY  24094.83385422  .00002888  00000-0  19949-3 0  9995,2 52002  53.2155 303.3807 0001224  86.3987 273.7146 15.08839385116026,6917.882,95.438,540.594,538.901,0.0
52002.0,STARLINK-3668,PAYLOAD,2024-04-04 07:08:27,15.08839215,0.0001296,53.2157,301.2991,86.7671,273.3469,0.00031137,4.671e-05,0.0,0 STARLINK-3668,1 52002U 22025AY  24095.29753566  .00004671  00000-0  31137-3 0  9999,2 52002  53.2157 301.2991 0001296  86.7671 273.3469 15.08839215114587,6917.883,95.438,540.644,538.851,0.0
52002.0,STARLINK-3668,PAYLOAD,2024-04-04 19:51:31,15.08846456,0.0001279,53.2153,298.9204,84.8125,275.3013,0.00014695,2.052e-05,0.0,0 STARLINK-3668,1 52002U 22025AY  24095.82745075  .00002052  00000-0  14695-3 0  9995,2 52002  53.2153 298.9204 0001279  84.8125 275.3013 15.08846456114667,6917.861,95.437,540.61,538.841,0.0
52002.0,STARLINK-3668,PAYLOAD,2024-04-04 23:02:17,15.08847662,0.0001288,53.2152,298.3256,84.8457,275.2682,0.00015975,2.256e-05,0.0,0 STARLINK-3668,1 52002U 22025AY  24095.95992980  .00002256  00000-0  15975-3 0  9996,2 52002  53.2152 298.3256 0001288  84.8457 275.2682 15.08847662116196,6917.857,95.437,540.613,538.831,0.0
52002.0,STARLINK-3668,PAYLOAD,2024-04-05 06:59:13,15.08847606,0.0001277,53.2153,296.8387,84.6096,275.5042,0.00015651,2.204e-05,0.0,0 STARLINK-3668,1 52002U 22025AY  24096.29112881  .00002204  00000-0  15651-3 0  9992,2 52002  53.2153 296.8387 0001277  84.6096 275.5042 15.08847606114739,6917.857,95.437,540.606,538.839,0.0
52002.0,STARLINK-3668,PAYLOAD,2024-04-05 19:42:18,15.08845532,0.0001309,53.2146,294.4599,84.1502,275.9639,0.0001327,1.825e-05,0.0,0 STARLINK-3668,1 52002U 22025AY  24096.82104860  .00001825  00000-0  13270-3 0  9992,2 52002  53.2146 294.4599 0001309  84.1502 275.9639 15.08845532114814,6917.863,95.437,540.634,538.823,0.0
52002.0,STARLINK-3668,PAYLOAD,2024-04-06 13:11:33,15.08838428,0.0001359,53.2141,291.1876,88.4758,271.639,-1.235e-05,-4.84e-06,0.0,0 STARLINK-3668,1 52002U 22025AY  24097.54969130 -.00000484  00000-0 -12350-4 0  9992,2 52002  53.2141 291.1876 0001359  88.4758 271.6390 15.08838428116439,6917.885,95.438,540.69,538.81,0.0
52002.0,STARLINK-3668,PAYLOAD,2024-04-07 13:02:20,15.08838794,0.000164,53.2177,286.7243,97.3259,262.792,-4.1221e-05,-9.44e-06,0.0,0 STARLINK-3668,1 52002U 22025AY  24098.54329732 -.00000944  00000-0 -41221-4 0  9991,2 52002  53.2177 286.7243 0001640  97.3259 262.7920 15.08838794115079,6917.884,95.438,540.884,538.615,0.0
52002.0,STARLINK-3668,PAYLOAD,2024-04-07 19:23:53,15.08836055,0.0001316,53.2146,285.5371,86.7289,273.3854,1.6145e-05,-3.1e-07,0.0,0 STARLINK-3668,1 52002U 22025AY  24098.80825769 -.00000031  00000-0  16145-4 0  9994,2 52002  53.2146 285.5371 0001316  86.7289 273.3854 15.08836055116623,6917.892,95.438,540.668,538.847,0.0
52002.0,STARLINK-3668,PAYLOAD,2024-04-08 12:53:07,15.088393,0.0001307,53.2153,282.2662,85.9136,274.2005,3.0607e-05,1.99e-06,0.0,0 STARLINK-3668,1 52002U 22025AY  24099.53689694  .00000199  00000-0  30607-4 0  9993,2 52002  53.2153 282.2662 0001307  85.9136 274.2005 15.08839300115229,6917.883,95.438,540.652,538.843,0.0
52002.0,STARLINK-3668,PAYLOAD,2024-04-08 19:14:40,15.08838672,7.59e-05,53.2232,281.0804,75.804,284.3037,0.00014622,2.04e-05,0.0,0 STARLINK-3668,1 52002U 22025AY  24099.80185754  .00002040  00000-0  14622-3 0  9996,2 52002  53.2232 281.0804 0000759  75.8040 284.3037 15.08838672115266,6917.884,95.438,540.275,539.224,0.0
52002.0,STARLINK-3668,PAYLOAD,2024-04-09 04:46:59,15.08840528,0.0001139,53.2188,279.2948,86.0313,274.0809,0.00014849,2.076e-05,0.0,0 STARLINK-3668,1 52002U 22025AY  24100.19929666  .00002076  00000-0  14849-3 0  9999,2 52002  53.2188 279.2948 0001139  86.0313 274.0809 15.08840528116834,6917.879,95.438,540.532,538.956,0.0
52002.0,STARLINK-3668,PAYLOAD,2024-04-09 11:08:31,15.08839244,0.0001374,53.2204,278.1069,92.8543,267.2606,0.00012999,1.781e-05,0.0,0 STARLINK-3668,1 52002U 22025AY  24100.46425916  .00001781  00000-0  12999-3 0  9994,2 52002  53.2204 278.1069 0001374  92.8543 267.2606 15.08839244115365,6917.883,95.438,540.698,538.797,0.0
52002.0,STARLINK-3668,PAYLOAD,2024-04-09 20:40:50,15.08839159,0.0001396,53.2208,276.3226,91.1336,268.9816,0.00011333,1.516e-05,0.0,0 STARLINK-3668,1 52002U 22025AY  24100.86170065  .00001516  00000-0  11333-3 0  9997,2 52002  53.2208 276.3226 0001396  91.1336 268.9816 15.08839159115423,6917.883,95.438,540.714,538.782,0.0
52002.0,STARLINK-3668,PAYLOAD,2024-04-10 10:59:18,15.08845361,0.0001412,53.2194,273.6451,86.7563,273.3591,7.9262e-05,9.74e-06,0.0,0 STARLINK-3668,1 52002U 22025AY  24101.45785795  .00000974  00000-0  79262-4 0  9998,2 52002  53.2194 273.6451 0001412  86.7563 273.3591 15.08845361115510,6917.864,95.437,540.706,538.752,0.0
52002.0,STARLINK-3668,PAYLOAD,2024-04-10 18:56:14,15.08848666,0.0001339,53.217,272.1572,84.9364,275.1781,9.9779e-05,1.301e-05,0.0,0 STARLINK-3668,1 52002U 22025AY  24101.78905332  .00001301  00000-0  99779-4 0  9995,2 52002  53.2170 272.1572 0001339  84.9364 275.1781 15.08848666115566,6917.854,95.437,540.645,538.793,0.0
52002.0,STARLINK-3668,PAYLOAD,2024-04-11 10:50:06,15.08838109,0.0001335,53.215,269.1835,85.8647,274.2497,5.2618e-05,5.5e-06,0.0,0 STARLINK-3668,1 52002U 22025AY  24102.45146026  .00000550  00000-0  52618-4 0  9993,2 52002  53.2150 269.1835 0001335  85.8647 274.2497 15.08838109117176,6917.886,95.438,540.675,538.828,0.0
52002.0,STARLINK-3668,PAYLOAD,2024-04-11 18:47:02,15.08836736,0.0001372,53.2157,267.696,87.074,273.0409,1.5402e-05,-4.3e-07,0.0,0 STARLINK-3668,1 52002U 22025AY  24102.78266327 -.00000043  00000-0  15402-4 0  9994,2 52002  53.2157 267.6960 0001372  87.0740 273.0409 15.08836736115716,6917.89,95.438,540.705,538.806,0.0
52002.0,STARLINK-3668,PAYLOAD,2024-04-12 04:19:20,15.08841586,0.000136,53.2162,265.9122,86.9023,273.2125,5.7801e-05,6.32e-06,0.0,0 STARLINK-3668,1 52002U 22025AY  24103.18009957  .00000632  00000-0  57801-4 0  9995,2 52002  53.2162 265.9122 0001360  86.9023 273.2125 15.08841586115774,6917.876,95.437,540.681,538.8,0.0
